{
  "norad_id": 39199,
  "name": "IRNSS-1A",
  "history": [
    {
      "epoch": "2026-03-28T00:19:38.724960",
      "apogee_km": 35855.17810627661,
      "perigee_km": 35715.01907852035,
      "latitude_deg": 34.83466033789349,
      "longitude_deg": -98.79030560003594,
      "semi_major_axis_km": 42163.23559239848,
      "eccentricity": 0.0016621,
      "inclination_deg": 35.5432,
      "raan_deg": 65.0278,
      "arg_perigee_deg": 190.5814,
      "mean_anomaly_deg": 349.6873,
      "mean_motion_rev_day": 1.00277123
    }
  ]
}